AETHER-4                
1 67375U 26004N   26040.59829324  .00003032  00000+0  33648-3 0  9998
2 67375  97.8019  41.2883 0005114 167.2888 192.8459 14.87968500  4326
AETHER-5                
1 67376U 26004P   26040.60121950  .00003392  00000+0  37708-3 0  9991
2 67376  97.8016  41.2832 0005430 173.0445 187.0848 14.87811853  4329
AETHER-6                
1 67377U 26004Q   26040.59796407  .00002977  00000+0  33028-3 0  9994
2 67377  97.8018  41.2884 0005093 166.1656 193.9702 14.87987540  4312
AETHER-7                
1 67378U 26004R   26040.60262655  .00003220  00000+0  35889-3 0  9999
2 67378  97.7989  41.2736 0004758 180.5141 179.6072 14.87741971  4318
AETHER-8                
1 67379U 26004S   26040.60242168  .00003213  00000+0  35804-3 0  9996
2 67379  97.7994  41.2759 0005305 177.9800 182.1439 14.87750935  4317
AETHER-9                
1 67380U 26004T   26040.60060157  .00003147  00000+0  35002-3 0  9990
2 67380  97.7985  41.2761 0004847 176.5566 183.5685 14.87850913  4311
AETHER-10               
1 67381U 26004U   26040.53059614  .00003659  00000+0  40436-3 0  9994
2 67381  97.8021  41.2249 0005291 168.2149 191.9193 14.88012301  4302
AETHER-11               
1 67382U 26004V   26040.59682011  .00003130  00000+0  34659-3 0  9998
2 67382  97.8014  41.2887 0004827 163.6726 196.4647 14.88039015  4313
AETHER-12               
1 67383U 26004W   26040.53487194  .00003310  00000+0  36857-3 0  9990
2 67383  97.7990  41.2091 0005127 178.9841 181.1386 14.87768475  4302
TWILIGHT X              
1 67384U 26004X   26040.59395514  .00006189  00000+0  67631-3 0  9992
2 67384  97.7987  41.2859 0004256 165.8092 194.3245 14.88209899  4318
TWILIGHT Y              
1 67385U 26004Y   26040.59166514  .00006233  00000+0  67673-3 0  9995
2 67385  97.8000  41.2917 0004339 157.8423 202.2982 14.88471754  4310
TWILIGHT Z              
1 67386U 26004Z   26040.59060538  .00003089  00000+0  33938-3 0  9998
2 67386  97.7981  41.2890 0003052 156.3698 203.7659 14.88371715  4310
