CCSDS_OMM_VERS = 2.0
CREATION_DATE  = 
ORIGINATOR     = 

OBJECT_NAME    = AETHER-4
OBJECT_ID      = 2026-004N
CENTER_NAME    = EARTH
REF_FRAME      = TEME
TIME_SYSTEM    = UTC
MEAN_ELEMENT_THEORY = SGP/SGP4

EPOCH          = 2026-02-09T14:21:32.535936
MEAN_MOTION    = 14.87968500
ECCENTRICITY   = .0005114
INCLINATION    = 97.8019
RA_OF_ASC_NODE = 41.2883
ARG_OF_PERICENTER = 167.2888
MEAN_ANOMALY   = 192.8459

EPHEMERIS_TYPE = 0
CLASSIFICATION_TYPE = U
NORAD_CAT_ID   = 67375
ELEMENT_SET_NO = 999
REV_AT_EPOCH   = 432
BSTAR          = .33648446E-3
MEAN_MOTION_DOT = .3032E-4
MEAN_MOTION_DDOT = 0

CCSDS_OMM_VERS = 2.0
CREATION_DATE  = 
ORIGINATOR     = 

OBJECT_NAME    = AETHER-5
OBJECT_ID      = 2026-004P
CENTER_NAME    = EARTH
REF_FRAME      = TEME
TIME_SYSTEM    = UTC
MEAN_ELEMENT_THEORY = SGP/SGP4

EPOCH          = 2026-02-09T14:25:45.364800
MEAN_MOTION    = 14.87811853
ECCENTRICITY   = .00054303
INCLINATION    = 97.8016
RA_OF_ASC_NODE = 41.2832
ARG_OF_PERICENTER = 173.0445
MEAN_ANOMALY   = 187.0848

EPHEMERIS_TYPE = 0
CLASSIFICATION_TYPE = U
NORAD_CAT_ID   = 67376
ELEMENT_SET_NO = 999
REV_AT_EPOCH   = 432
BSTAR          = .37708363E-3
MEAN_MOTION_DOT = .3392E-4
MEAN_MOTION_DDOT = 0

CCSDS_OMM_VERS = 2.0
CREATION_DATE  = 
ORIGINATOR     = 

OBJECT_NAME    = AETHER-6
OBJECT_ID      = 2026-004Q
CENTER_NAME    = EARTH
REF_FRAME      = TEME
TIME_SYSTEM    = UTC
MEAN_ELEMENT_THEORY = SGP/SGP4

EPOCH          = 2026-02-09T14:21:04.095648
MEAN_MOTION    = 14.87987540
ECCENTRICITY   = .00050931
INCLINATION    = 97.8018
RA_OF_ASC_NODE = 41.2884
ARG_OF_PERICENTER = 166.1656
MEAN_ANOMALY   = 193.9702

EPHEMERIS_TYPE = 0
CLASSIFICATION_TYPE = U
NORAD_CAT_ID   = 67377
ELEMENT_SET_NO = 999
REV_AT_EPOCH   = 431
BSTAR          = .33027885E-3
MEAN_MOTION_DOT = .2977E-4
MEAN_MOTION_DDOT = 0

CCSDS_OMM_VERS = 2.0
CREATION_DATE  = 
ORIGINATOR     = 

OBJECT_NAME    = AETHER-7
OBJECT_ID      = 2026-004R
CENTER_NAME    = EARTH
REF_FRAME      = TEME
TIME_SYSTEM    = UTC
MEAN_ELEMENT_THEORY = SGP/SGP4

EPOCH          = 2026-02-09T14:27:46.933920
MEAN_MOTION    = 14.87741971
ECCENTRICITY   = .00047581
INCLINATION    = 97.7989
RA_OF_ASC_NODE = 41.2736
ARG_OF_PERICENTER = 180.5141
MEAN_ANOMALY   = 179.6072

EPHEMERIS_TYPE = 0
CLASSIFICATION_TYPE = U
NORAD_CAT_ID   = 67378
ELEMENT_SET_NO = 999
REV_AT_EPOCH   = 431
BSTAR          = .35889344E-3
MEAN_MOTION_DOT = .322E-4
MEAN_MOTION_DDOT = 0

CCSDS_OMM_VERS = 2.0
CREATION_DATE  = 
ORIGINATOR     = 

OBJECT_NAME    = AETHER-8
OBJECT_ID      = 2026-004S
CENTER_NAME    = EARTH
REF_FRAME      = TEME
TIME_SYSTEM    = UTC
MEAN_ELEMENT_THEORY = SGP/SGP4

EPOCH          = 2026-02-09T14:27:29.233152
MEAN_MOTION    = 14.87750935
ECCENTRICITY   = .00053051
INCLINATION    = 97.7994
RA_OF_ASC_NODE = 41.2759
ARG_OF_PERICENTER = 177.9800
MEAN_ANOMALY   = 182.1439

EPHEMERIS_TYPE = 0
CLASSIFICATION_TYPE = U
NORAD_CAT_ID   = 67379
ELEMENT_SET_NO = 999
REV_AT_EPOCH   = 431
BSTAR          = .35803829E-3
MEAN_MOTION_DOT = .3213E-4
MEAN_MOTION_DDOT = 0

CCSDS_OMM_VERS = 2.0
CREATION_DATE  = 
ORIGINATOR     = 

OBJECT_NAME    = AETHER-9
OBJECT_ID      = 2026-004T
CENTER_NAME    = EARTH
REF_FRAME      = TEME
TIME_SYSTEM    = UTC
MEAN_ELEMENT_THEORY = SGP/SGP4

EPOCH          = 2026-02-09T14:24:51.975648
MEAN_MOTION    = 14.87850913
ECCENTRICITY   = .00048477
INCLINATION    = 97.7985
RA_OF_ASC_NODE = 41.2761
ARG_OF_PERICENTER = 176.5566
MEAN_ANOMALY   = 183.5685

EPHEMERIS_TYPE = 0
CLASSIFICATION_TYPE = U
NORAD_CAT_ID   = 67380
ELEMENT_SET_NO = 999
REV_AT_EPOCH   = 431
BSTAR          = .35001527E-3
MEAN_MOTION_DOT = .3147E-4
MEAN_MOTION_DDOT = 0

CCSDS_OMM_VERS = 2.0
CREATION_DATE  = 
ORIGINATOR     = 

OBJECT_NAME    = AETHER-10
OBJECT_ID      = 2026-004U
CENTER_NAME    = EARTH
REF_FRAME      = TEME
TIME_SYSTEM    = UTC
MEAN_ELEMENT_THEORY = SGP/SGP4

EPOCH          = 2026-02-09T12:44:03.506496
MEAN_MOTION    = 14.88012301
ECCENTRICITY   = .00052919
INCLINATION    = 97.8021
RA_OF_ASC_NODE = 41.2249
ARG_OF_PERICENTER = 168.2149
MEAN_ANOMALY   = 191.9193

EPHEMERIS_TYPE = 0
CLASSIFICATION_TYPE = U
NORAD_CAT_ID   = 67381
ELEMENT_SET_NO = 999
REV_AT_EPOCH   = 430
BSTAR          = .40436437E-3
MEAN_MOTION_DOT = .3659E-4
MEAN_MOTION_DDOT = 0

CCSDS_OMM_VERS = 2.0
CREATION_DATE  = 
ORIGINATOR     = 

OBJECT_NAME    = AETHER-11
OBJECT_ID      = 2026-004V
CENTER_NAME    = EARTH
REF_FRAME      = TEME
TIME_SYSTEM    = UTC
MEAN_ELEMENT_THEORY = SGP/SGP4

EPOCH          = 2026-02-09T14:19:25.257504
MEAN_MOTION    = 14.88039015
ECCENTRICITY   = .00048279
INCLINATION    = 97.8014
RA_OF_ASC_NODE = 41.2887
ARG_OF_PERICENTER = 163.6726
MEAN_ANOMALY   = 196.4647

EPHEMERIS_TYPE = 0
CLASSIFICATION_TYPE = U
NORAD_CAT_ID   = 67382
ELEMENT_SET_NO = 999
REV_AT_EPOCH   = 431
BSTAR          = .34659277E-3
MEAN_MOTION_DOT = .313E-4
MEAN_MOTION_DDOT = 0

CCSDS_OMM_VERS = 2.0
CREATION_DATE  = 
ORIGINATOR     = 

OBJECT_NAME    = AETHER-12
OBJECT_ID      = 2026-004W
CENTER_NAME    = EARTH
REF_FRAME      = TEME
TIME_SYSTEM    = UTC
MEAN_ELEMENT_THEORY = SGP/SGP4

EPOCH          = 2026-02-09T12:50:12.935616
MEAN_MOTION    = 14.87768475
ECCENTRICITY   = .0005127
INCLINATION    = 97.7990
RA_OF_ASC_NODE = 41.2091
ARG_OF_PERICENTER = 178.9841
MEAN_ANOMALY   = 181.1386

EPHEMERIS_TYPE = 0
CLASSIFICATION_TYPE = U
NORAD_CAT_ID   = 67383
ELEMENT_SET_NO = 999
REV_AT_EPOCH   = 430
BSTAR          = .3685736E-3
MEAN_MOTION_DOT = .331E-4
MEAN_MOTION_DDOT = 0

CCSDS_OMM_VERS = 2.0
CREATION_DATE  = 
ORIGINATOR     = 

OBJECT_NAME    = TWILIGHT X
OBJECT_ID      = 2026-004X
CENTER_NAME    = EARTH
REF_FRAME      = TEME
TIME_SYSTEM    = UTC
MEAN_ELEMENT_THEORY = SGP/SGP4

EPOCH          = 2026-02-09T14:15:17.724096
MEAN_MOTION    = 14.88209899
ECCENTRICITY   = .00042563
INCLINATION    = 97.7987
RA_OF_ASC_NODE = 41.2859
ARG_OF_PERICENTER = 165.8092
MEAN_ANOMALY   = 194.3245

EPHEMERIS_TYPE = 0
CLASSIFICATION_TYPE = U
NORAD_CAT_ID   = 67384
ELEMENT_SET_NO = 999
REV_AT_EPOCH   = 431
BSTAR          = .67631327E-3
MEAN_MOTION_DOT = .6189E-4
MEAN_MOTION_DDOT = 0

CCSDS_OMM_VERS = 2.0
CREATION_DATE  = 
ORIGINATOR     = 

OBJECT_NAME    = TWILIGHT Y
OBJECT_ID      = 2026-004Y
CENTER_NAME    = EARTH
REF_FRAME      = TEME
TIME_SYSTEM    = UTC
MEAN_ELEMENT_THEORY = SGP/SGP4

EPOCH          = 2026-02-09T14:11:59.868096
MEAN_MOTION    = 14.88471754
ECCENTRICITY   = .00043395
INCLINATION    = 97.8000
RA_OF_ASC_NODE = 41.2917
ARG_OF_PERICENTER = 157.8423
MEAN_ANOMALY   = 202.2982

EPHEMERIS_TYPE = 0
CLASSIFICATION_TYPE = U
NORAD_CAT_ID   = 67385
ELEMENT_SET_NO = 999
REV_AT_EPOCH   = 431
BSTAR          = .67673061E-3
MEAN_MOTION_DOT = .6233E-4
MEAN_MOTION_DDOT = 0

CCSDS_OMM_VERS = 2.0
CREATION_DATE  = 
ORIGINATOR     = 

OBJECT_NAME    = TWILIGHT Z
OBJECT_ID      = 2026-004Z
CENTER_NAME    = EARTH
REF_FRAME      = TEME
TIME_SYSTEM    = UTC
MEAN_ELEMENT_THEORY = SGP/SGP4

EPOCH          = 2026-02-09T14:10:28.304832
MEAN_MOTION    = 14.88371715
ECCENTRICITY   = .00030524
INCLINATION    = 97.7981
RA_OF_ASC_NODE = 41.2890
ARG_OF_PERICENTER = 156.3698
MEAN_ANOMALY   = 203.7659

EPHEMERIS_TYPE = 0
CLASSIFICATION_TYPE = U
NORAD_CAT_ID   = 67386
ELEMENT_SET_NO = 999
REV_AT_EPOCH   = 431
BSTAR          = .33938422E-3
MEAN_MOTION_DOT = .3089E-4
MEAN_MOTION_DDOT = 0

